CCSDS_OMM_VERS = 2.0
CREATION_DATE  = 
ORIGINATOR     = 

OBJECT_NAME    = CYGNUS NG-23
OBJECT_ID      = 2025-208A
CENTER_NAME    = EARTH
REF_FRAME      = TEME
TIME_SYSTEM    = UTC
MEAN_ELEMENT_THEORY = SGP/SGP4

EPOCH          = 2026-01-11T22:03:12.004416
MEAN_MOTION    = 15.49245617
ECCENTRICITY   = .00077091
INCLINATION    = 51.6333
RA_OF_ASC_NODE = 353.0651
ARG_OF_PERICENTER = 8.0909
MEAN_ANOMALY   = 352.0202

EPHEMERIS_TYPE = 0
CLASSIFICATION_TYPE = U
NORAD_CAT_ID   = 65616
ELEMENT_SET_NO = 999
REV_AT_EPOCH   = 22
BSTAR          = .1900602E-3
MEAN_MOTION_DOT = .10131E-3
MEAN_MOTION_DDOT = 0

CCSDS_OMM_VERS = 2.0
CREATION_DATE  = 
ORIGINATOR     = 

OBJECT_NAME    = DRAGONFLY
OBJECT_ID      = 1998-067XH
CENTER_NAME    = EARTH
REF_FRAME      = TEME
TIME_SYSTEM    = UTC
MEAN_ELEMENT_THEORY = SGP/SGP4

EPOCH          = 2026-01-11T22:32:32.198784
MEAN_MOTION    = 15.87364482
ECCENTRICITY   = .00082
INCLINATION    = 51.6222
RA_OF_ASC_NODE = 339.6309
ARG_OF_PERICENTER = 93.5596
MEAN_ANOMALY   = 266.6346

EPHEMERIS_TYPE = 0
CLASSIFICATION_TYPE = U
NORAD_CAT_ID   = 65729
ELEMENT_SET_NO = 999
REV_AT_EPOCH   = 1793
BSTAR          = .14347524E-2
MEAN_MOTION_DOT = .40479E-2
MEAN_MOTION_DDOT = 0

CCSDS_OMM_VERS = 2.0
CREATION_DATE  = 
ORIGINATOR     = 

OBJECT_NAME    = 1998-067XK
OBJECT_ID      = 1998-067XK
CENTER_NAME    = EARTH
REF_FRAME      = TEME
TIME_SYSTEM    = UTC
MEAN_ELEMENT_THEORY = SGP/SGP4

EPOCH          = 2026-01-11T03:50:53.422656
MEAN_MOTION    = 15.72902940
ECCENTRICITY   = .00049954
INCLINATION    = 51.6286
RA_OF_ASC_NODE = 347.2435
ARG_OF_PERICENTER = 61.6122
MEAN_ANOMALY   = 298.5380

EPHEMERIS_TYPE = 0
CLASSIFICATION_TYPE = U
NORAD_CAT_ID   = 65731
ELEMENT_SET_NO = 999
REV_AT_EPOCH   = 1776
BSTAR          = .11673701E-2
MEAN_MOTION_DOT = .164722E-2
MEAN_MOTION_DDOT = 0

CCSDS_OMM_VERS = 2.0
CREATION_DATE  = 
ORIGINATOR     = 

OBJECT_NAME    = RSP-03
OBJECT_ID      = 1998-067XL
CENTER_NAME    = EARTH
REF_FRAME      = TEME
TIME_SYSTEM    = UTC
MEAN_ELEMENT_THEORY = SGP/SGP4

EPOCH          = 2026-01-11T03:39:16.098624
MEAN_MOTION    = 15.78699385
ECCENTRICITY   = .00060587
INCLINATION    = 51.6253
RA_OF_ASC_NODE = 345.6628
ARG_OF_PERICENTER = 70.0166
MEAN_ANOMALY   = 290.1487

EPHEMERIS_TYPE = 0
CLASSIFICATION_TYPE = U
NORAD_CAT_ID   = 65732
ELEMENT_SET_NO = 999
REV_AT_EPOCH   = 1779
BSTAR          = .11934645E-2
MEAN_MOTION_DOT = .218742E-2
MEAN_MOTION_DDOT = 0

CCSDS_OMM_VERS = 2.0
CREATION_DATE  = 
ORIGINATOR     = 

OBJECT_NAME    = GHS-01
OBJECT_ID      = 1998-067XM
CENTER_NAME    = EARTH
REF_FRAME      = TEME
TIME_SYSTEM    = UTC
MEAN_ELEMENT_THEORY = SGP/SGP4

EPOCH          = 2026-01-11T21:55:36.310080
MEAN_MOTION    = 15.98372685
ECCENTRICITY   = .0008231
INCLINATION    = 51.6232
RA_OF_ASC_NODE = 337.9529
ARG_OF_PERICENTER = 106.1501
MEAN_ANOMALY   = 254.0415

EPHEMERIS_TYPE = 0
CLASSIFICATION_TYPE = U
NORAD_CAT_ID   = 65733
ELEMENT_SET_NO = 999
REV_AT_EPOCH   = 1796
BSTAR          = .1815389E-2
MEAN_MOTION_DOT = .868349E-2
MEAN_MOTION_DDOT = .35785517E-3

CCSDS_OMM_VERS = 2.0
CREATION_DATE  = 
ORIGINATOR     = 

OBJECT_NAME    = YOTSUBA-KULOVER
OBJECT_ID      = 1998-067XN
CENTER_NAME    = EARTH
REF_FRAME      = TEME
TIME_SYSTEM    = UTC
MEAN_ELEMENT_THEORY = SGP/SGP4

EPOCH          = 2026-01-11T23:29:41.204832
MEAN_MOTION    = 15.64460737
ECCENTRICITY   = .00040306
INCLINATION    = 51.6290
RA_OF_ASC_NODE = 347.4698
ARG_OF_PERICENTER = 90.2411
MEAN_ANOMALY   = 269.9046

EPHEMERIS_TYPE = 0
CLASSIFICATION_TYPE = U
NORAD_CAT_ID   = 65941
ELEMENT_SET_NO = 999
REV_AT_EPOCH   = 1458
BSTAR          = .91450694E-3
MEAN_MOTION_DOT = .90153E-3
MEAN_MOTION_DDOT = 0

CCSDS_OMM_VERS = 2.0
CREATION_DATE  = 
ORIGINATOR     = 

OBJECT_NAME    = BOTAN
OBJECT_ID      = 1998-067XP
CENTER_NAME    = EARTH
REF_FRAME      = TEME
TIME_SYSTEM    = UTC
MEAN_ELEMENT_THEORY = SGP/SGP4

EPOCH          = 2026-01-11T22:56:01.031136
MEAN_MOTION    = 15.71040539
ECCENTRICITY   = .00047795
INCLINATION    = 51.6267
RA_OF_ASC_NODE = 345.8032
ARG_OF_PERICENTER = 86.9222
MEAN_ANOMALY   = 273.2323

EPHEMERIS_TYPE = 0
CLASSIFICATION_TYPE = U
NORAD_CAT_ID   = 65942
ELEMENT_SET_NO = 999
REV_AT_EPOCH   = 1460
BSTAR          = .12793933E-2
MEAN_MOTION_DOT = .16691E-2
MEAN_MOTION_DDOT = 0

CCSDS_OMM_VERS = 2.0
CREATION_DATE  = 
ORIGINATOR     = 

OBJECT_NAME    = E-KAGAKU-1
OBJECT_ID      = 1998-067XQ
CENTER_NAME    = EARTH
REF_FRAME      = TEME
TIME_SYSTEM    = UTC
MEAN_ELEMENT_THEORY = SGP/SGP4

EPOCH          = 2026-01-11T08:09:39.522528
MEAN_MOTION    = 15.64340229
ECCENTRICITY   = .00025159
INCLINATION    = 51.6314
RA_OF_ASC_NODE = 350.7082
ARG_OF_PERICENTER = 93.4167
MEAN_ANOMALY   = 266.7116

EPHEMERIS_TYPE = 0
CLASSIFICATION_TYPE = U
NORAD_CAT_ID   = 65943
ELEMENT_SET_NO = 999
REV_AT_EPOCH   = 1448
BSTAR          = .10492463E-2
MEAN_MOTION_DOT = .103167E-2
MEAN_MOTION_DDOT = 0

CCSDS_OMM_VERS = 2.0
CREATION_DATE  = 
ORIGINATOR     = 

OBJECT_NAME    = HRC MONOBLOCK CAMERA
OBJECT_ID      = 1998-067XR
CENTER_NAME    = EARTH
REF_FRAME      = TEME
TIME_SYSTEM    = UTC
MEAN_ELEMENT_THEORY = SGP/SGP4

EPOCH          = 2026-01-11T21:58:03.072576
MEAN_MOTION    = 15.56486743
ECCENTRICITY   = .00011739
INCLINATION    = 51.6310
RA_OF_ASC_NODE = 350.7942
ARG_OF_PERICENTER = 351.0792
MEAN_ANOMALY   = 9.0179

EPHEMERIS_TYPE = 0
CLASSIFICATION_TYPE = U
NORAD_CAT_ID   = 66052
ELEMENT_SET_NO = 999
REV_AT_EPOCH   = 1353
BSTAR          = .53606072E-3
MEAN_MOTION_DOT = .38398E-3
MEAN_MOTION_DDOT = 0

CCSDS_OMM_VERS = 2.0
CREATION_DATE  = 
ORIGINATOR     = 

OBJECT_NAME    = HTV-X1
OBJECT_ID      = 2025-241A
CENTER_NAME    = EARTH
REF_FRAME      = TEME
TIME_SYSTEM    = UTC
MEAN_ELEMENT_THEORY = SGP/SGP4

EPOCH          = 2026-01-11T22:03:12.004416
MEAN_MOTION    = 15.49245617
ECCENTRICITY   = .00077091
INCLINATION    = 51.6333
RA_OF_ASC_NODE = 353.0651
ARG_OF_PERICENTER = 8.0909
MEAN_ANOMALY   = 352.0202

EPHEMERIS_TYPE = 0
CLASSIFICATION_TYPE = U
NORAD_CAT_ID   = 66174
ELEMENT_SET_NO = 999
REV_AT_EPOCH   = 51
BSTAR          = .1900602E-3
MEAN_MOTION_DOT = .10131E-3
MEAN_MOTION_DDOT = 0

CCSDS_OMM_VERS = 2.0
CREATION_DATE  = 
ORIGINATOR     = 

OBJECT_NAME    = SZ-21 MODULE
OBJECT_ID      = 2025-246C
CENTER_NAME    = EARTH
REF_FRAME      = TEME
TIME_SYSTEM    = UTC
MEAN_ELEMENT_THEORY = SGP/SGP4

EPOCH          = 2026-01-11T21:11:13.107840
MEAN_MOTION    = 15.64350755
ECCENTRICITY   = .00016049
INCLINATION    = 41.4741
RA_OF_ASC_NODE = 191.9223
ARG_OF_PERICENTER = 141.8798
MEAN_ANOMALY   = 218.2156

EPHEMERIS_TYPE = 0
CLASSIFICATION_TYPE = U
NORAD_CAT_ID   = 66515
ELEMENT_SET_NO = 999
REV_AT_EPOCH   = 916
BSTAR          = .31693738E-3
MEAN_MOTION_DOT = .31001E-3
MEAN_MOTION_DDOT = 0

CCSDS_OMM_VERS = 2.0
CREATION_DATE  = 
ORIGINATOR     = 

OBJECT_NAME    = SHENZHOU-22
OBJECT_ID      = 2025-272A
CENTER_NAME    = EARTH
REF_FRAME      = TEME
TIME_SYSTEM    = UTC
MEAN_ELEMENT_THEORY = SGP/SGP4

EPOCH          = 2026-01-11T22:26:55.792608
MEAN_MOTION    = 15.60429921
ECCENTRICITY   = .00115066
INCLINATION    = 41.4654
RA_OF_ASC_NODE = 193.2137
ARG_OF_PERICENTER = 267.3803
MEAN_ANOMALY   = 92.5718

EPHEMERIS_TYPE = 0
CLASSIFICATION_TYPE = U
NORAD_CAT_ID   = 66645
ELEMENT_SET_NO = 999
REV_AT_EPOCH   = 26764
BSTAR          = .25390226E-3
MEAN_MOTION_DOT = .2125E-3
MEAN_MOTION_DDOT = 0

