CYGNUS NG-23            
1 65616U 25208A   26011.91888894  .00010131  00000+0  19006-3 0  9990
2 65616  51.6333 353.0651 0007709   8.0909 352.0202 15.49245617   221
DRAGONFLY               
1 65729U 98067XH  26011.93926156  .00404790  00000+0  14348-2 0  9995
2 65729  51.6222 339.6309 0008200  93.5596 266.6346 15.87364482 17930
1998-067XK              
1 65731U 98067XK  26011.16034054  .00164722  00000+0  11674-2 0  9997
2 65731  51.6286 347.2435 0004995  61.6122 298.5380 15.72902940 17760
RSP-03                  
1 65732U 98067XL  26011.15226966  .00218742  00000+0  11935-2 0  9994
2 65732  51.6253 345.6628 0006058  70.0166 290.1487 15.78699385 17796
GHS-01                  
1 65733U 98067XM  26011.91361470  .00868349  35786-3  18154-2 0  9996
2 65733  51.6232 337.9529 0008231 106.1501 254.0415 15.98372685 17969
YOTSUBA-KULOVER         
1 65941U 98067XN  26011.97894913  .00090153  00000+0  91451-3 0  9995
2 65941  51.6290 347.4698 0004030  90.2411 269.9046 15.64460737 14582
BOTAN                   
1 65942U 98067XP  26011.95556749  .00166910  00000+0  12794-2 0  9993
2 65942  51.6267 345.8032 0004779  86.9222 273.2323 15.71040539 14604
E-KAGAKU-1              
1 65943U 98067XQ  26011.34004077  .00103167  00000+0  10492-2 0  9997
2 65943  51.6314 350.7082 0002515  93.4167 266.7116 15.64340229 14489
HRC MONOBLOCK CAMERA    
1 66052U 98067XR  26011.91531334  .00038398  00000+0  53606-3 0  9991
2 66052  51.6310 350.7942 0001173 351.0792   9.0179 15.56486743 13533
HTV-X1                  
1 66174U 25241A   26011.91888894  .00010131  00000+0  19006-3 0  9997
2 66174  51.6333 353.0651 0007709   8.0909 352.0202 15.49245617   513
SZ-21 MODULE            
1 66515U 25246C   26011.88279060  .00031001  00000+0  31694-3 0  9992
2 66515  41.4741 191.9223 0001604 141.8798 218.2156 15.64350755  9164
SHENZHOU-22             
1 66645U 25272A   26011.93536797  .00021250  00000+0  25390-3 0  9995
2 66645  41.4654 193.2137 0011506 267.3803  92.5718 15.60429921267647
